[{"OBJECT_NAME":"STARLINK-30806","OBJECT_ID":"2023-167F","EPOCH":"2026-03-09T05:07:35.068512","MEAN_MOTION":15.26757589,"ECCENTRICITY":0.00016481,"INCLINATION":43.0019,"RA_OF_ASC_NODE":145.9682,"ARG_OF_PERICENTER":259.5964,"MEAN_ANOMALY":100.4702,"EPHEMERIS_TYPE":0,"CLASSIFICATION_TYPE":"U","NORAD_CAT_ID":58180,"ELEMENT_SET_NO":999,"REV_AT_EPOCH":13091,"BSTAR":3.067106e-6,"MEAN_MOTION_DOT":-1.78e-6,"MEAN_MOTION_DDOT":0},{"OBJECT_NAME":"FENGYUN 1C DEB","OBJECT_ID":"1999-025BZU","EPOCH":"2026-03-09T17:19:51.665664","MEAN_MOTION":15.28412118,"ECCENTRICITY":0.00188802,"INCLINATION":98.9598,"RA_OF_ASC_NODE":354.2029,"ARG_OF_PERICENTER":82.3682,"MEAN_ANOMALY":277.9697,"EPHEMERIS_TYPE":0,"CLASSIFICATION_TYPE":"U","NORAD_CAT_ID":31614,"ELEMENT_SET_NO":999,"REV_AT_EPOCH":97742,"BSTAR":0.011500831,"MEAN_MOTION_DOT":0.0033373,"MEAN_MOTION_DDOT":0}]
